[{"OBJECT_NAME":"STARLINK-34457","OBJECT_ID":"2025-126AA","EPOCH":"2026-03-09T22:04:11.751744","MEAN_MOTION":14.98334339,"ECCENTRICITY":0.00026202,"INCLINATION":70.0031,"RA_OF_ASC_NODE":33.9814,"ARG_OF_PERICENTER":276.2497,"MEAN_ANOMALY":83.8364,"EPHEMERIS_TYPE":0,"CLASSIFICATION_TYPE":"U","NORAD_CAT_ID":64368,"ELEMENT_SET_NO":999,"REV_AT_EPOCH":4071,"BSTAR":0.00046824394,"MEAN_MOTION_DOT":5.499e-5,"MEAN_MOTION_DDOT":0},{"OBJECT_NAME":"CZ-6A DEB","OBJECT_ID":"2024-140XM","EPOCH":"2026-03-08T13:47:27.015936","MEAN_MOTION":14.68389112,"ECCENTRICITY":0.01435049,"INCLINATION":89.0591,"RA_OF_ASC_NODE":285.7653,"ARG_OF_PERICENTER":157.7449,"MEAN_ANOMALY":203.0084,"EPHEMERIS_TYPE":0,"CLASSIFICATION_TYPE":"U","NORAD_CAT_ID":61396,"ELEMENT_SET_NO":999,"REV_AT_EPOCH":7982,"BSTAR":0.00092985645,"MEAN_MOTION_DOT":6.31e-5,"MEAN_MOTION_DDOT":0}]
